NORAD_CAT_ID,OBJECT_NAME,OBJECT_TYPE,EPOCH,MEAN_MOTION,ECCENTRICITY,INCLINATION,RA_OF_ASC_NODE,ARG_OF_PERICENTER,MEAN_ANOMALY,BSTAR,MEAN_MOTION_DOT,MEAN_MOTION_DDOT,TLE_LINE0,TLE_LINE1,TLE_LINE2,SEMIMAJOR_AXIS,PERIOD,APOGEE,PERIGEE,DECAYED
40536,KOMPSAT 3A,PAYLOAD,2022-06-03 21:25:52,15.11810012,0.0007115,97.531,97.7131,138.3525,306.43,0.00014945,2.489e-05,0.0,0 KOMPSAT 3A,1 40536U 15014A   22154.89296402  .00002489  00000-0  14945-3 0  9992,2 40536  97.5310  97.7131 0007115 138.3525 306.4300 15.11810012396996,6908.816999999999,95.25,535.5980000000002,525.766,0.0
40536,KOMPSAT 3A,PAYLOAD,2022-06-04 02:36:18,15.11810243,0.0007184,97.5312,97.9254,137.481,39.8404,0.00014306,2.380000000000001e-05,0.0,0 KOMPSAT 3A,1 40536U 15014A   22155.10854167  .00002380  00000-0  14306-3 0  9996,2 40536  97.5312  97.9254 0007184 137.4810  39.8404 15.11810243397022,6908.816,95.25,535.645,525.7180000000002,0.0
40536,KOMPSAT 3A,PAYLOAD,2022-06-04 10:16:47,15.1181071,0.000721,97.5314,98.2407,136.8212,339.8462,0.0001353,2.247e-05,0.0,0 KOMPSAT 3A,1 40536U 15014A   22155.42832973  .00002247  00000-0  13530-3 0  9992,2 40536  97.5314  98.2407 0007210 136.8212 339.8462 15.11810710397078,6908.815,95.25,535.661,525.6990000000002,0.0
40536,KOMPSAT 3A,PAYLOAD,2022-06-04 13:27:09,15.11810421,0.0007177,97.5312,98.3707,136.7221,338.9851,0.00012926,2.144e-05,0.0,0 KOMPSAT 3A,1 40536U 15014A   22155.56052968  .00002144  00000-0  12926-3 0  9999,2 40536  97.5312  98.3707 0007177 136.7221 338.9851 15.11810421397094,6908.816,95.25,535.639,525.722,0.0
40536,KOMPSAT 3A,PAYLOAD,2022-06-04 17:53:17,15.11810379,0.0007217,97.5311,98.5531,136.3536,264.5466,0.00012247,2.028e-05,0.0,0 KOMPSAT 3A,1 40536U 15014A   22155.74533987  .00002028  00000-0  12247-3 0  9991,2 40536  97.5311  98.5531 0007217 136.3536 264.5466 15.11810379397122,6908.816,95.25,535.6669999999998,525.695,0.0
40536,KOMPSAT 3A,PAYLOAD,2022-06-04 21:15:24,15.118105599999998,0.0007228,97.5311,98.6916,135.4117,308.9038,0.00011928,1.973e-05,0.0,0 KOMPSAT 3A,1 40536U 15014A   22155.88569778  .00001973  00000-0  11928-3 0  9996,2 40536  97.5311  98.6916 0007228 135.4117 308.9038 15.11810560397149,6908.815,95.25,535.674,525.687,0.0
40536,KOMPSAT 3A,PAYLOAD,2022-06-05 02:03:58,15.11810903,0.0007264999999999999,97.531,98.8889,134.7468,319.5151,0.00011593,1.916e-05,0.0,0 KOMPSAT 3A,1 40536U 15014A   22156.08609005  .00001916  00000-0  11593-3 0  9992,2 40536  97.5310  98.8889 0007265 134.7468 319.5151 15.11810903397179,6908.814,95.25,535.6990000000002,525.66,0.0
40536,KOMPSAT 3A,PAYLOAD,2022-06-05 10:05:29,15.11811228,0.0007222999999999999,97.5311,99.2186,133.4019,339.6415,0.00010865,1.792e-05,0.0,0 KOMPSAT 3A,1 40536U 15014A   22156.42048255  .00001792  00000-0  10865-3 0  9997,2 40536  97.5311  99.2186 0007223 133.4019 339.6415 15.11811228397220,6908.813,95.25,535.669,525.688,0.0
40536,KOMPSAT 3A,PAYLOAD,2022-06-05 19:15:22,15.11811432,0.0007202999999999999,97.5311,99.595,132.0833,257.9448,9.9404e-05,1.634e-05,0.0,0 KOMPSAT 3A,1 40536U 15014A   22156.80234698  .00001634  00000-0  99404-4 0  9999,2 40536  97.5311  99.5950 0007203 132.0833 257.9448 15.11811432397280,6908.813,95.25,535.654,525.701,0.0
40536,KOMPSAT 3A,PAYLOAD,2022-06-06 03:06:56,15.11812015,0.0007235000000000001,97.531,99.9178,130.5622,240.6181,9.515700000000001e-05,1.561e-05,0.0,0 KOMPSAT 3A,1 40536U 15014A   22157.12982044  .00001561  00000-0  95157-4 0  9990,2 40536  97.5310  99.9178 0007235 130.5622 240.6181 15.11812015397336,6908.811,95.25,535.675,525.677,0.0
40536,KOMPSAT 3A,PAYLOAD,2022-06-06 13:07:07,15.11812764,0.0007226,97.531,100.3287,129.3194,348.8446,9.1083e-05,1.492e-05,0.0,0 KOMPSAT 3A,1 40536U 15014A   22157.54661628  .00001492  00000-0  91083-4 0  9995,2 40536  97.5310 100.3287 0007226 129.3194 348.8446 15.11812764397396,6908.809,95.25,535.6659999999998,525.681,0.0
40536,KOMPSAT 3A,PAYLOAD,2022-06-06 20:54:58,15.11813502,0.0007237999999999999,97.5309,100.649,128.4897,316.7795,8.8098e-05,1.441e-05,0.0,0 KOMPSAT 3A,1 40536U 15014A   22157.87150641  .00001441  00000-0  88098-4 0  9995,2 40536  97.5309 100.6490 0007238 128.4897 316.7795 15.11813502397444,6908.806,95.25,535.672,525.6709999999998,0.0
40536,KOMPSAT 3A,PAYLOAD,2022-06-07 04:57:22,15.11814441,0.0007242,97.5308,100.9792,127.3132,340.0996,8.7139e-05,1.424e-05,0.0,0 KOMPSAT 3A,1 40536U 15014A   22158.20651537  .00001424  00000-0  87139-4 0  9999,2 40536  97.5308 100.9792 0007242 127.3132 340.0996 15.11814441397497,6908.804,95.25,535.672,525.665,0.0
40536,KOMPSAT 3A,PAYLOAD,2022-06-07 11:26:26,15.11815286,0.0007309,97.5308,101.2453,126.7145,10.2475,8.706600000000001e-05,1.423e-05,0.0,0 KOMPSAT 3A,1 40536U 15014A   22158.47669796  .00001423  00000-0  87066-4 0  9992,2 40536  97.5308 101.2453 0007309 126.7145  10.2475 15.11815286397537,6908.8009999999995,95.25,535.716,525.616,0.0
40536,KOMPSAT 3A,PAYLOAD,2022-06-07 20:38:55,15.11816882,0.000732,97.5308,101.6233,125.6062,298.1754,8.931600000000001e-05,1.462e-05,0.0,0 KOMPSAT 3A,1 40536U 15014A   22158.86036752  .00001462  00000-0  89316-4 0  9998,2 40536  97.5308 101.6233 0007320 125.6062 298.1754 15.11816882397592,6908.7959999999985,95.25,535.7180000000002,525.604,0.0
40536,KOMPSAT 3A,PAYLOAD,2022-06-08 03:08:22,15.11818021,0.0007287999999999999,97.5308,101.8899,124.7434,330.0294,9.101899999999999e-05,1.491e-05,0.0,0 KOMPSAT 3A,1 40536U 15014A   22159.13081458  .00001491  00000-0  91019-4 0  9997,2 40536  97.5308 101.8899 0007288 124.7434 330.0294 15.11818021397635,6908.793000000002,95.25,535.693,525.623,0.0
40536,KOMPSAT 3A,PAYLOAD,2022-06-08 11:16:19,15.11819626,0.0007337000000000001,97.5308,102.2238,123.5783,14.252,9.426e-05,1.546e-05,0.0,0 KOMPSAT 3A,1 40536U 15014A   22159.46966683  .00001546  00000-0  94260-4 0  9997,2 40536  97.5308 102.2238 0007337 123.5783  14.2520 15.11819626397686,6908.788000000001,95.249,535.722,525.5840000000002,0.0
40536,KOMPSAT 3A,PAYLOAD,2022-06-08 18:58:39,15.11821803,0.0007351,97.5308,102.5401,122.4458,321.6954,0.0001016,1.672e-05,0.0,0 KOMPSAT 3A,1 40536U 15014A   22159.79073091  .00001672  00000-0  10160-3 0  9991,2 40536  97.5308 102.5401 0007351 122.4458 321.6954 15.11821803397736,6908.781,95.249,535.725,525.568,0.0
40536,KOMPSAT 3A,PAYLOAD,2022-06-09 02:57:52,15.11823985,0.0007428999999999999,97.5308,102.8684,123.2814,330.9671,0.00010893,1.797e-05,0.0,0 KOMPSAT 3A,1 40536U 15014A   22160.12352362  .00001797  00000-0  10893-3 0  9992,2 40536  97.5308 102.8684 0007429 123.2814 330.9671 15.11823985397780,6908.775,95.249,535.7719999999998,525.507,0.0
40536,KOMPSAT 3A,PAYLOAD,2022-06-09 11:04:35,15.11825993,0.0007479,97.5307,103.2017,122.0719,10.5829,0.00011408,1.885e-05,0.0,0 KOMPSAT 3A,1 40536U 15014A   22160.46151927  .00001885  00000-0  11408-3 0  9994,2 40536  97.5307 103.2017 0007479 122.0719  10.5829 15.11825993397833,6908.768,95.249,535.8,525.466,0.0
40536,KOMPSAT 3A,PAYLOAD,2022-06-09 20:07:17,15.11828437,0.00075,97.5308,103.5735,121.2024,261.3751,0.00012137,2.01e-05,0.0,0 KOMPSAT 3A,1 40536U 15014A   22160.83840222  .00002010  00000-0  12137-3 0  9999,2 40536  97.5308 103.5735 0007500 121.2024 261.3751 15.11828437397891,6908.7609999999995,95.249,535.808,525.444,0.0
40536,KOMPSAT 3A,PAYLOAD,2022-06-10 02:47:52,15.11830084,0.0007486000000000001,97.5308,103.8478,120.6123,334.9917,0.00012489,2.07e-05,0.0,0 KOMPSAT 3A,1 40536U 15014A   22161.11657536  .00002070  00000-0  12489-3 0  9991,2 40536  97.5308 103.8478 0007486 120.6123 334.9917 15.11830084397931,6908.7559999999985,95.249,535.793,525.4490000000002,0.0
40536,KOMPSAT 3A,PAYLOAD,2022-06-10 10:55:57,15.11832166,0.000759,97.5308,104.1821,119.478,19.7478,0.00012986,2.156e-05,0.0,0 KOMPSAT 3A,1 40536U 15014A   22161.45552873  .00002156  00000-0  12986-3 0  9993,2 40536  97.5308 104.1821 0007590 119.4780  19.7478 15.11832166397986,6908.75,95.249,535.8580000000002,525.371,0.0
40536,KOMPSAT 3A,PAYLOAD,2022-06-10 20:06:36,15.11834236,0.0007638,97.5308,104.5591,118.4637,300.6448,0.00013312,2.212e-05,0.0,0 KOMPSAT 3A,1 40536U 15014A   22161.83791899  .00002212  00000-0  13312-3 0  9995,2 40536  97.5308 104.5591 0007638 118.4637 300.6448 15.11834236398044,6908.743,95.249,535.885,525.331,0.0
40536,KOMPSAT 3A,PAYLOAD,2022-06-11 02:49:43,15.11835786,0.0007664,97.5308,104.8351,118.0802,23.7015,0.00013555,2.253e-05,0.0,0 KOMPSAT 3A,1 40536U 15014A   22162.11786486  .00002253  00000-0  13555-3 0  9997,2 40536  97.5308 104.8351 0007664 118.0802  23.7015 15.11835786398088,6908.739000000001,95.24799999999999,535.898,525.309,0.0
40536,KOMPSAT 3A,PAYLOAD,2022-06-11 12:01:38,15.11837613,0.0007666,97.5308,105.213,116.6094,309.8645,0.00013653,2.27e-05,0.0,0 KOMPSAT 3A,1 40536U 15014A   22162.50113891  .00002270  00000-0  13653-3 0  9992,2 40536  97.5308 105.2130 0007666 116.6094 309.8645 15.11837613398142,6908.733,95.24799999999999,535.894,525.302,0.0
40536,KOMPSAT 3A,PAYLOAD,2022-06-11 19:54:33,15.11838902,0.0007696000000000001,97.5308,105.5368,115.7344,297.0719,0.00013521,2.248e-05,0.0,0 KOMPSAT 3A,1 40536U 15014A   22162.82955888  .00002248  00000-0  13521-3 0  9996,2 40536  97.5308 105.5368 0007696 115.7344 297.0719 15.11838902398196,6908.729,95.24799999999999,535.911,525.2769999999998,0.0
40536,KOMPSAT 3A,PAYLOAD,2022-06-12 02:34:28,15.1184005,0.0007722,97.5308,105.8105,114.9117,8.4136,0.00013456,2.237e-05,0.0,0 KOMPSAT 3A,1 40536U 15014A   22163.10726983  .00002237  00000-0  13456-3 0  9995,2 40536  97.5308 105.8105 0007722 114.9117   8.4136 15.11840050398236,6908.726,95.24799999999999,535.9259999999998,525.256,0.0
40536,KOMPSAT 3A,PAYLOAD,2022-06-12 10:29:22,15.1184137,0.0007746000000000001,97.5309,106.1357,113.9814,3.1962,0.00013329,2.215e-05,0.0,0 KOMPSAT 3A,1 40536U 15014A   22163.43707168  .00002215  00000-0  13329-3 0  9990,2 40536  97.5309 106.1357 0007746 113.9814   3.1962 15.11841370398289,6908.722,95.24799999999999,535.938,525.235,0.0
